{"dragon": {"capsule": null, "mass_returned_kg": null, "mass_returned_lbs": null, "flight_time_sec": null, "manifest": null, "water_landing": null, "land_landing": null}, "name": "Starlink-2", "type": "Satellite", "reused": false, "launch": "5eb87d3cffd86e000604b380", "customers": ["SpaceX"], "norad_ids": [44914, 44915, 44916, 44917, 44918, 44919, 44920, 44921, 44922, 44923, 44924, 44925, 44926, 44927, 44928, 44929, 44930, 44931, 44932, 44933, 44934, 44935, 44936, 44937, 44938, 44939, 44940, 44941, 44942, 44943, 44944, 44945, 44946, 44947, 44948, 44949, 44950, 44951, 44952, 44953, 44954, 44955, 44956, 44957, 44958, 44959, 44960, 44961, 44962, 44963, 44964, 44965, 44966, 44967, 44968, 44969, 44970, 44971, 44972, 44973], "nationalities": ["United States"], "manufacturers": ["SpaceX"], "mass_kg": 15600, "mass_lbs": 34392, "orbit": "VLEO", "reference_system": "geocentric", "regime": "very-low-earth", "longitude": null, "semi_major_axis_km": 6925.344, "eccentricity": 0.0001841, "periapsis_km": 545.934, "apoapsis_km": 548.484, "inclination_deg": 53.053, "period_min": 95.592, "lifespan_years": null, "epoch": "2022-01-29T07:37:16.000Z", "mean_motion": 15.06401497, "raan": 242.0507, "arg_of_pericenter": 74.481, "mean_anomaly": 285.6382, "id": "5eb0e4cfb6c3bb0006eeb24f"}